[
    {
        "Altitude(m)": 607886.7058209971,
        "Argument of Periapsis(deg)": 0.0,
        "Eccentricity": 0.0,
        "Inclination(deg)": 60.0,
        "Latitude(deg)": 40.99848258408311,
        "Longitude(deg)": 9.972855022852995,
        "Mean Anomaly(deg)": 49.09090000000001,
        "RAAN(deg)": 80.0,
        "Satellite Name": "Test1 355",
        "Satellite Number": 355,
        "Semi-Major Axis(m)": 6980739.136638005,
        "Time(s)": 0
    },
    {
        "Altitude(m)": 607987.6203632083,
        "Argument of Periapsis(deg)": 0.00010418945913296404,
        "Eccentricity": 0.0,
        "Inclination(deg)": 60.0,
        "Latitude(deg)": 41.46357392432718,
        "Longitude(deg)": 10.477081143975715,
        "Mean Anomaly(deg)": 49.71100614546182,
        "RAAN(deg)": 79.99957995086025,
        "Satellite Name": "Test1 355",
        "Satellite Number": 355,
        "Semi-Major Axis(m)": 6980739.136638005,
        "Time(s)": 10
    },
    {
        "Altitude(m)": 608088.5845280584,
        "Argument of Periapsis(deg)": 0.0002083789182659281,
        "Eccentricity": 0.0,
        "Inclination(deg)": 60.0,
        "Latitude(deg)": 41.92600110721135,
        "Longitude(deg)": 10.989130281232908,
        "Mean Anomaly(deg)": 50.33111229092366,
        "RAAN(deg)": 79.99915990172052,
        "Satellite Name": "Test1 355",
        "Satellite Number": 355,
        "Semi-Major Axis(m)": 6980739.136638005,
        "Time(s)": 20
    },
    {
        "Altitude(m)": 608189.53509405,
        "Argument of Periapsis(deg)": 0.00031256837739889213,
        "Eccentricity": 0.0,
        "Inclination(deg)": 60.0,
        "Latitude(deg)": 42.38568338339495,
        "Longitude(deg)": 11.509198477003414,
        "Mean Anomaly(deg)": 50.951218436385474,
        "RAAN(deg)": 79.99873985258077,
        "Satellite Name": "Test1 355",
        "Satellite Number": 355,
        "Semi-Major Axis(m)": 6980739.136638005,
        "Time(s)": 30
    },
    {
        "Altitude(m)": 608290.4090664304,
        "Argument of Periapsis(deg)": 0.0004167578365318562,
        "Eccentricity": 0.0,
        "Inclination(deg)": 60.0,
        "Latitude(deg)": 42.8425374564902,
        "Longitude(deg)": 12.037485640487494,
        "Mean Anomaly(deg)": 51.57132458184732,
        "RAAN(deg)": 79.99831980344103,
        "Satellite Name": "Test1 355",
        "Satellite Number": 355,
        "Semi-Major Axis(m)": 6980739.136638005,
        "Time(s)": 40
    },
    {
        "Altitude(m)": 608391.1437084043,
        "Argument of Periapsis(deg)": 0.0005209472956648203,
        "Eccentricity": 0.0,
        "Inclination(deg)": 60.0,
        "Latitude(deg)": 43.296477403672185,
        "Longitude(deg)": 12.574194452692616,
        "Mean Anomaly(deg)": 52.191430727309154,
        "RAAN(deg)": 79.99789975430129,
        "Satellite Name": "Test1 355",
        "Satellite Number": 355,
        "Semi-Major Axis(m)": 6980739.136638005,
        "Time(s)": 50
    },
    {
        "Altitude(m)": 608491.676572245,
        "Argument of Periapsis(deg)": 0.0006251367547977843,
        "Eccentricity": 0.0,
        "Inclination(deg)": 60.0,
        "Latitude(deg)": 43.7474145955828,
        "Longitude(deg)": 13.119530764526122,
        "Mean Anomaly(deg)": 52.81153687277097,
        "RAAN(deg)": 79.99747970516155,
        "Satellite Name": "Test1 355",
        "Satellite Number": 355,
        "Semi-Major Axis(m)": 6980739.136638005,
        "Time(s)": 60
    },
    {
        "Altitude(m)": 608591.9455301553,
        "Argument of Periapsis(deg)": 0.0007293262139307483,
        "Eccentricity": 0.0,
        "Inclination(deg)": 60.0,
        "Latitude(deg)": 44.195257615757505,
        "Longitude(deg)": 13.673703973233183,
        "Mean Anomaly(deg)": 53.43164301823282,
        "RAAN(deg)": 79.9970596560218,
        "Satellite Name": "Test1 355",
        "Satellite Number": 355,
        "Semi-Major Axis(m)": 6980739.136638005,
        "Time(s)": 70
    },
    {
        "Altitude(m)": 608691.8888049787,
        "Argument of Periapsis(deg)": 0.0008335156730637124,
        "Eccentricity": 0.0,
        "Inclination(deg)": 60.0,
        "Latitude(deg)": 44.63991217983598,
        "Longitude(deg)": 14.236925862293697,
        "Mean Anomaly(deg)": 54.05174916369463,
        "RAAN(deg)": 79.99663960688207,
        "Satellite Name": "Test1 355",
        "Satellite Number": 355,
        "Semi-Major Axis(m)": 6980739.136638005,
        "Time(s)": 80
    },
    {
        "Altitude(m)": 608791.445000652,
        "Argument of Periapsis(deg)": 0.0009377051321966765,
        "Eccentricity": 0.0,
        "Inclination(deg)": 60.0,
        "Latitude(deg)": 45.081281054865656,
        "Longitude(deg)": 14.80941092839117,
        "Mean Anomaly(deg)": 54.67185530915647,
        "RAAN(deg)": 79.99621955774232,
        "Satellite Name": "Test1 355",
        "Satellite Number": 355,
        "Semi-Major Axis(m)": 6980739.136638005,
        "Time(s)": 90
    },
    {
        "Altitude(m)": 608890.5531324464,
        "Argument of Periapsis(deg)": 0.0010418945913296407,
        "Eccentricity": 0.0,
        "Inclination(deg)": 60.0,
        "Latitude(deg)": 45.5192639790356,
        "Longitude(deg)": 15.391376680321414,
        "Mean Anomaly(deg)": 55.2919614546183,
        "RAAN(deg)": 79.99579950860256,
        "Satellite Name": "Test1 355",
        "Satellite Number": 355,
        "Semi-Major Axis(m)": 6980739.136638005,
        "Time(s)": 100
    },
    {
        "Altitude(m)": 608989.1526569645,
        "Argument of Periapsis(deg)": 0.0011460840504626045,
        "Eccentricity": 0.0,
        "Inclination(deg)": 60.0,
        "Latitude(deg)": 45.95375758222495,
        "Longitude(deg)": 15.983042394586443,
        "Mean Anomaly(deg)": 55.91206760008012,
        "RAAN(deg)": 79.99537945946282,
        "Satellite Name": "Test1 355",
        "Satellite Number": 355,
        "Semi-Major Axis(m)": 6980739.136638005,
        "Time(s)": 110
    },
    {
        "Altitude(m)": 609087.183501867,
        "Argument of Periapsis(deg)": 0.0012502735095955685,
        "Eccentricity": 0.0,
        "Inclination(deg)": 60.0,
        "Latitude(deg)": 46.38465530780346,
        "Longitude(deg)": 16.584629350922825,
        "Mean Anomaly(deg)": 56.532173745541954,
        "RAAN(deg)": 79.99495941032308,
        "Satellite Name": "Test1 355",
        "Satellite Number": 355,
        "Semi-Major Axis(m)": 6980739.136638005,
        "Time(s)": 120
    },
    {
        "Altitude(m)": 609184.5860953393,
        "Argument of Periapsis(deg)": 0.0013544629687285324,
        "Eccentricity": 0.0,
        "Inclination(deg)": 60.0,
        "Latitude(deg)": 46.811847336164554,
        "Longitude(deg)": 17.19636103227877,
        "Mean Anomaly(deg)": 57.1522798910038,
        "RAAN(deg)": 79.99453936118334,
        "Satellite Name": "Test1 355",
        "Satellite Number": 355,
        "Semi-Major Axis(m)": 6980739.136638005,
        "Time(s)": 130
    },
    {
        "Altitude(m)": 609281.3013952663,
        "Argument of Periapsis(deg)": 0.0014586524278614966,
        "Eccentricity": 0.0,
        "Inclination(deg)": 60.0,
        "Latitude(deg)": 47.23522051052669,
        "Longitude(deg)": 17.818461773651315,
        "Mean Anomaly(deg)": 57.77238603646563,
        "RAAN(deg)": 79.99411931204361,
        "Satellite Name": "Test1 355",
        "Satellite Number": 355,
        "Semi-Major Axis(m)": 6980739.136638005,
        "Time(s)": 140
    },
    {
        "Altitude(m)": 609377.2709181084,
        "Argument of Periapsis(deg)": 0.0015628418869944607,
        "Eccentricity": 0.0,
        "Inclination(deg)": 60.0,
        "Latitude(deg)": 47.65465826560378,
        "Longitude(deg)": 18.451156882721882,
        "Mean Anomaly(deg)": 58.392492181927445,
        "RAAN(deg)": 79.99369926290386,
        "Satellite Name": "Test1 355",
        "Satellite Number": 355,
        "Semi-Major Axis(m)": 6980739.136638005,
        "Time(s)": 150
    },
    {
        "Altitude(m)": 609472.4367674764,
        "Argument of Periapsis(deg)": 0.0016670313461274247,
        "Eccentricity": 0.0,
        "Inclination(deg)": 60.0,
        "Latitude(deg)": 48.07004055980022,
        "Longitude(deg)": 19.0946727165307,
        "Mean Anomaly(deg)": 59.01259832738926,
        "RAAN(deg)": 79.99327921376411,
        "Satellite Name": "Test1 355",
        "Satellite Number": 355,
        "Semi-Major Axis(m)": 6980739.136638005,
        "Time(s)": 160
    },
    {
        "Altitude(m)": 609566.7416623704,
        "Argument of Periapsis(deg)": 0.0017712208052603888,
        "Eccentricity": 0.0,
        "Inclination(deg)": 60.0,
        "Latitude(deg)": 48.48124381165036,
        "Longitude(deg)": 19.749235198370624,
        "Mean Anomaly(deg)": 59.63270447285111,
        "RAAN(deg)": 79.99285916462436,
        "Satellite Name": "Test1 355",
        "Satellite Number": 355,
        "Semi-Major Axis(m)": 6980739.136638005,
        "Time(s)": 170
    },
    {
        "Altitude(m)": 609660.1289650887,
        "Argument of Periapsis(deg)": 0.001875410264393353,
        "Eccentricity": 0.0,
        "Inclination(deg)": 60.0,
        "Latitude(deg)": 48.888140841300206,
        "Longitude(deg)": 20.41506979766731,
        "Mean Anomaly(deg)": 60.25281061831294,
        "RAAN(deg)": 79.99243911548463,
        "Satellite Name": "Test1 355",
        "Satellite Number": 355,
        "Semi-Major Axis(m)": 6980739.136638005,
        "Time(s)": 180
    },
    {
        "Altitude(m)": 609752.5427087892,
        "Argument of Periapsis(deg)": 0.0019795997235263173,
        "Eccentricity": 0.0,
        "Inclination(deg)": 60.0,
        "Latitude(deg)": 49.29060081789236,
        "Longitude(deg)": 21.09240145698576,
        "Mean Anomaly(deg)": 60.87291676377479,
        "RAAN(deg)": 79.99201906634488,
        "Satellite Name": "Test1 355",
        "Satellite Number": 355,
        "Semi-Major Axis(m)": 6980739.136638005,
        "Time(s)": 190
    }
]